[{"OBJECT_NAME":"STARLINK-1736","OBJECT_ID":"2020-070BF","EPOCH":"2026-03-09T10:02:57.052032","MEAN_MOTION":15.66676236,"ECCENTRICITY":0.00011151,"INCLINATION":53.042,"RA_OF_ASC_NODE":117.3157,"ARG_OF_PERICENTER":98.6487,"MEAN_ANOMALY":261.4655,"EPHEMERIS_TYPE":0,"CLASSIFICATION_TYPE":"U","NORAD_CAT_ID":46585,"ELEMENT_SET_NO":999,"REV_AT_EPOCH":30031,"BSTAR":0.00089725065,"MEAN_MOTION_DOT":0.00096585,"MEAN_MOTION_DDOT":0},{"OBJECT_NAME":"OBJECT F","OBJECT_ID":"2022-167F","EPOCH":"2026-03-09T22:34:52.000032","MEAN_MOTION":15.68472614,"ECCENTRICITY":0.00018013,"INCLINATION":97.6217,"RA_OF_ASC_NODE":246.6908,"ARG_OF_PERICENTER":28.5626,"MEAN_ANOMALY":331.5733,"EPHEMERIS_TYPE":0,"CLASSIFICATION_TYPE":"U","NORAD_CAT_ID":54687,"ELEMENT_SET_NO":999,"REV_AT_EPOCH":18117,"BSTAR":0.00078904481,"MEAN_MOTION_DOT":0.00089617,"MEAN_MOTION_DDOT":0}]
